{
  "type": "FeatureCollection",
  "features": [
    {
      "type": "Feature",
      "properties": {
        "norad_id": 63772,
        "name": "BIOMASS",
        "group": "resource",
        "lat": -73.61374146417273,
        "lon": -39.187708627384566,
        "alt_km": 677.0941425110632,
        "timestamp": "2025-12-10T14:53:36.780515+00:00",
        "meta_object_name": "BIOMASS",
        "meta_object_id": "2025-090A",
        "meta_epoch": "2025-12-10T02:16:38.800128",
        "meta_mean_motion": 14.67536787,
        "meta_eccentricity": 0.00012064,
        "meta_inclination": 98.07,
        "meta_ra_of_asc_node": 169.1432,
        "meta_arg_of_pericenter": 77.5553,
        "meta_mean_anomaly": 282.5786,
        "meta_ephemeris_type": 0,
        "meta_classification_type": "U",
        "meta_norad_cat_id": 63772,
        "meta_element_set_no": 999,
        "meta_rev_at_epoch": 3295,
        "meta_bstar": 0.00037986643,
        "meta_mean_motion_dot": 2.106e-05,
        "meta_mean_motion_ddot": 0,
        "tle_line1": "1 63772U 25090A   25344.09489352  .00002106  00000+0  37987-3 0  9994",
        "tle_line2": "2 63772  98.0700 169.1432 0001206  77.5553 282.5786 14.67536787 32959"
      },
      "geometry": {
        "type": "Point",
        "coordinates": [
          -39.187708627384566,
          -73.61374146417273
        ]
      }
    },
    {
      "type": "Feature",
      "properties": {
        "norad_id": 64694,
        "name": "GOSAT-GW (IBUKI GW)",
        "group": "resource",
        "lat": 72.95078259674244,
        "lon": 127.62609443489828,
        "alt_km": 660.8940731075327,
        "timestamp": "2025-12-10T14:53:36.780524+00:00",
        "meta_object_name": "GOSAT-GW (IBUKI GW)",
        "meta_object_id": "2025-141A",
        "meta_epoch": "2025-12-08T18:14:08.043648",
        "meta_mean_motion": 14.67565462,
        "meta_eccentricity": 0.00014946,
        "meta_inclination": 98.0423,
        "meta_ra_of_asc_node": 278.345,
        "meta_arg_of_pericenter": 82.5316,
        "meta_mean_anomaly": 277.6059,
        "meta_ephemeris_type": 0,
        "meta_classification_type": "U",
        "meta_norad_cat_id": 64694,
        "meta_element_set_no": 999,
        "meta_rev_at_epoch": 2391,
        "meta_bstar": 0.00038232231,
        "meta_mean_motion_dot": 2.122e-05,
        "meta_mean_motion_ddot": 0,
        "tle_line1": "1 64694U 25141A   25342.75981532  .00002122  00000+0  38232-3 0  9995",
        "tle_line2": "2 64694  98.0423 278.3450 0001494  82.5316 277.6059 14.67565462 23916"
      },
      "geometry": {
        "type": "Point",
        "coordinates": [
          127.62609443489828,
          72.95078259674244
        ]
      }
    },
    {
      "type": "Feature",
      "properties": {
        "norad_id": 64876,
        "name": "IONOSFERA-M 3",
        "group": "resource",
        "lat": 77.73897093221635,
        "lon": 170.53655130608706,
        "alt_km": 811.8415703046985,
        "timestamp": "2025-12-10T14:53:36.780533+00:00",
        "meta_object_name": "IONOSFERA-M 3",
        "meta_object_id": "2025-155A",
        "meta_epoch": "2025-12-10T07:40:23.630880",
        "meta_mean_motion": 14.21440073,
        "meta_eccentricity": 0.00022901,
        "meta_inclination": 98.5779,
        "meta_ra_of_asc_node": 306.2544,
        "meta_arg_of_pericenter": 63.8834,
        "meta_mean_anomaly": 296.2579,
        "meta_ephemeris_type": 0,
        "meta_classification_type": "U",
        "meta_norad_cat_id": 64876,
        "meta_element_set_no": 999,
        "meta_rev_at_epoch": 1957,
        "meta_bstar": 8.8027445e-05,
        "meta_mean_motion_dot": 1.5e-06,
        "meta_mean_motion_ddot": 0,
        "tle_line1": "1 64876U 25155A   25344.31971795  .00000150  00000+0  88027-4 0  9993",
        "tle_line2": "2 64876  98.5779 306.2544 0002290  63.8834 296.2579 14.21440073 19575"
      },
      "geometry": {
        "type": "Point",
        "coordinates": [
          170.53655130608706,
          77.73897093221635
        ]
      }
    },
    {
      "type": "Feature",
      "properties": {
        "norad_id": 64877,
        "name": "IONOSFERA-M 4",
        "group": "resource",
        "lat": -77.31665980551298,
        "lon": -11.415485889570915,
        "alt_km": 828.775863085406,
        "timestamp": "2025-12-10T14:53:36.780542+00:00",
        "meta_object_name": "IONOSFERA-M 4",
        "meta_object_id": "2025-155B",
        "meta_epoch": "2025-12-10T06:49:31.709856",
        "meta_mean_motion": 14.21441214,
        "meta_eccentricity": 0.00016482,
        "meta_inclination": 98.5778,
        "meta_ra_of_asc_node": 306.1396,
        "meta_arg_of_pericenter": 65.8639,
        "meta_mean_anomaly": 294.2711,
        "meta_ephemeris_type": 0,
        "meta_classification_type": "U",
        "meta_norad_cat_id": 64877,
        "meta_element_set_no": 999,
        "meta_rev_at_epoch": 1956,
        "meta_bstar": 0.00010114186,
        "meta_mean_motion_dot": 1.78e-06,
        "meta_mean_motion_ddot": 0,
        "tle_line1": "1 64877U 25155B   25344.28439479  .00000178  00000+0  10114-3 0  9999",
        "tle_line2": "2 64877  98.5778 306.1396 0001648  65.8639 294.2711 14.21441214 19563"
      },
      "geometry": {
        "type": "Point",
        "coordinates": [
          -11.415485889570915,
          -77.31665980551298
        ]
      }
    },
    {
      "type": "Feature",
      "properties": {
        "norad_id": 64899,
        "name": "MICROCARB",
        "group": "resource",
        "lat": 47.58809830792299,
        "lon": 51.140843288092654,
        "alt_km": 652.9528730722559,
        "timestamp": "2025-12-10T14:53:36.780551+00:00",
        "meta_object_name": "MICROCARB",
        "meta_object_id": "2025-156A",
        "meta_epoch": "2025-12-10T04:53:12.034464",
        "meta_mean_motion": 14.72050749,
        "meta_eccentricity": 0.00169776,
        "meta_inclination": 98.0028,
        "meta_ra_of_asc_node": 59.5897,
        "meta_arg_of_pericenter": 152.517,
        "meta_mean_anomaly": 207.6939,
        "meta_ephemeris_type": 0,
        "meta_classification_type": "U",
        "meta_norad_cat_id": 64899,
        "meta_element_set_no": 999,
        "meta_rev_at_epoch": 2016,
        "meta_bstar": 0.00020125465,
        "meta_mean_motion_dot": 1.217e-05,
        "meta_mean_motion_ddot": 0,
        "tle_line1": "1 64899U 25156A   25344.20361151  .00001217  00000+0  20125-3 0  9995",
        "tle_line2": "2 64899  98.0028  59.5897 0016977 152.5170 207.6939 14.72050749 20163"
      },
      "geometry": {
        "type": "Point",
        "coordinates": [
          51.140843288092654,
          47.58809830792299
        ]
      }
    },
    {
      "type": "Feature",
      "properties": {
        "norad_id": 64900,
        "name": "CO3D 3",
        "group": "resource",
        "lat": 80.00102378732771,
        "lon": 13.237273657864705,
        "alt_km": 496.9065675207221,
        "timestamp": "2025-12-10T14:53:36.780561+00:00",
        "meta_object_name": "CO3D 3",
        "meta_object_id": "2025-156B",
        "meta_epoch": "2025-12-10T06:37:47.479008",
        "meta_mean_motion": 15.20203521,
        "meta_eccentricity": 0.00013736,
        "meta_inclination": 97.4339,
        "meta_ra_of_asc_node": 60.6785,
        "meta_arg_of_pericenter": 99.8457,
        "meta_mean_anomaly": 260.2933,
        "meta_ephemeris_type": 0,
        "meta_classification_type": "U",
        "meta_norad_cat_id": 64900,
        "meta_element_set_no": 999,
        "meta_rev_at_epoch": 2083,
        "meta_bstar": 0.00069936536,
        "meta_mean_motion_dot": 0.00015104,
        "meta_mean_motion_ddot": 0,
        "tle_line1": "1 64900U 25156B   25344.27624397  .00015104  00000+0  69937-3 0  9993",
        "tle_line2": "2 64900  97.4339  60.6785 0001373  99.8457 260.2933 15.20203521 20833"
      },
      "geometry": {
        "type": "Point",
        "coordinates": [
          13.237273657864705,
          80.00102378732771
        ]
      }
    },
    {
      "type": "Feature",
      "properties": {
        "norad_id": 64901,
        "name": "CO3D 4",
        "group": "resource",
        "lat": 79.4105758269401,
        "lon": 16.71855050886626,
        "alt_km": 498.37310389173854,
        "timestamp": "2025-12-10T14:53:36.780570+00:00",
        "meta_object_name": "CO3D 4",
        "meta_object_id": "2025-156C",
        "meta_epoch": "2025-12-09T21:09:17.831232",
        "meta_mean_motion": 15.20201124,
        "meta_eccentricity": 0.0001172,
        "meta_inclination": 97.4339,
        "meta_ra_of_asc_node": 60.2895,
        "meta_arg_of_pericenter": 212.2858,
        "meta_mean_anomaly": 147.8306,
        "meta_ephemeris_type": 0,
        "meta_classification_type": "U",
        "meta_norad_cat_id": 64901,
        "meta_element_set_no": 999,
        "meta_rev_at_epoch": 2077,
        "meta_bstar": -2.5806744e-05,
        "meta_mean_motion_dot": -6.26e-06,
        "meta_mean_motion_ddot": 0,
        "tle_line1": "1 64901U 25156C   25343.88145638 -.00000626  00000+0 -25807-4 0  9990",
        "tle_line2": "2 64901  97.4339  60.2895 0001172 212.2858 147.8306 15.20201124 20779"
      },
      "geometry": {
        "type": "Point",
        "coordinates": [
          16.71855050886626,
          79.4105758269401
        ]
      }
    }
  ]
}